STARLINK-31211          
1 59031U 24038J   26169.07306774 -.00000434  00000+0 -62474-5 0  9993
2 59031  43.0016 179.8364 0001063 277.9890  82.0841 15.27573425130002
STARLINK-30862          
1 59032U 24038K   26167.74751842  .00000036  00000+0  10860-4 0  9993
2 59032  43.0109 176.7510 0002277 269.7142  90.3449 15.27578109129921
STARLINK-31210          
1 59033U 24038L   26169.03386625  .00000330  00000+0  21525-4 0  9998
2 59033  43.0016 176.9546 0001277 274.0978  85.9728 15.27578704130209
STARLINK-31231          
1 59034U 24038M   26169.03001053 -.00000166  00000+0  34743-5 0  9993
2 59034  42.9999 176.9243 0001108 273.6420  86.4305 15.27577449130035
STARLINK-31207          
1 59035U 24038N   26169.02615549  .00000234  00000+0  18030-4 0  9999
2 59035  43.0002 176.8962 0001083 269.2061  90.8666 15.27578527130200
STARLINK-31217          
1 59036U 24038P   26169.14439473  .00000329  00000+0  21487-4 0  9998
2 59036  43.0033  81.9019 0000951 275.0948  84.9795 15.27579779131305
STARLINK-31208          
1 59037U 24038Q   26169.32833004 -.00000045  00000+0  78671-5 0  9991
2 59037  42.9995 179.1392 0000888 267.1343  92.9407 15.27576290130207
STARLINK-31235          
1 59038U 24038R   26169.08897124  .00000397  00000+0  23943-4 0  9998
2 59038  43.0001 176.5048 0001491 268.9295  91.1386 15.27578004130159
STARLINK-31220          
1 59039U 24038S   26169.09105197  .00000547  00000+0  29396-4 0  9997
2 59039  43.0019 179.9694 0001612 272.8905  87.1762 15.27580055130118
STARLINK-31225          
1 59040U 24038T   26169.07483227  .00002556  00000+0  10236-3 0  9994
2 59040  43.0008 176.3646 0001303 263.7344  96.3359 15.27584984130040
STARLINK-31240          
1 59041U 24038U   26169.04800221 -.00000194  00000+0  24727-5 0  9998
2 59041  42.9995 177.0596 0001214 276.1750  83.8963 15.27574649130146
STARLINK-31202          
1 59042U 24038V   26169.10449172  .00004140  00000+0  15437-3 0  9990
2 59042  43.0006 175.7731 0002523 180.3972 179.6879 15.28749344130220
STARLINK-31234          
1 59043U 24038W   26169.04158071  .00002806  00000+0  11144-3 0  9997
2 59043  43.0046 177.0122 0000839 270.2423  89.8332 15.27588118130036
STARLINK-31153          
1 59044U 24038X   26169.01972857  .00000824  00000+0  39471-4 0  9993
2 59044  43.0014 176.8461 0000810 238.6042 121.4730 15.27579544130037
STARLINK-31241          
1 59045U 24038Y   26169.30699063 -.00002176  00000+0 -69628-4 0  9992
2 59045  42.9992 175.5613 0000877 273.3954  86.6797 15.27559995130243
STARLINK-31205          
1 59046U 24038Z   26169.03772296  .00000256  00000+0  18821-4 0  9997
2 59046  43.0042 176.9819 0001464 261.9332  98.1354 15.27577411130140
METEOR-M2 4             
1 59051U 24039A   26169.30890603  .00000016  00000+0  26815-4 0  9993
2 59051  98.7011 128.5928 0007358 157.8364 202.3133 14.22429678119426
PARS 1                  
1 59065U 24039Q   26169.28556703  .00008891  00000+0  18537-3 0  9995
2 59065  97.4824 150.2399 0011531 108.4357 251.8147 15.45742952128811
SITRO-AIS 25            
1 59066U 24039R   26169.31415238  .00002261  00000+0  17831-3 0  9998
2 59066  95.3904 235.8670 0143317 324.7723  34.4092 14.93517819124890
SITRO-AIS 26            
1 59067U 24039S   26169.24867084  .00002165  00000+0  17158-3 0  9996
2 59067  95.3910 235.7193 0143724 325.6167  33.5819 14.93313908124879
SITRO-AIS 27            
1 59068U 24039T   26169.28560514  .00001765  00000+0  13922-3 0  9999
2 59068  95.3912 236.0171 0142676 324.0991  35.0709 14.93735265124908
HULIANWAN GAOGUI-01 (H*)
1 59069U 24040A   26169.04604534  .00000150  00000+0  00000+0 0  9993
2 59069   0.0671 331.6116 0002834  65.8323 278.9846  1.00271503  7336
SITRO-AIS 28            
1 59071U 24039U   26169.26302730  .00002480  00000+0  19437-3 0  9997
2 59071  95.3911 236.0488 0142516 324.0059  35.1631 14.93768479124908
MARAFON-D GVM           
1 59072U 24039V   26169.27010054  .00000216  00000+0  56298-4 0  9996
2 59072  88.9830 283.7178 0015547 340.9181  19.1439 14.46011441121349
STARLINK-31265          
1 59074U 24041A   26169.20317105  .00000629  00000+0  32364-4 0  9997
2 59074  43.0022 103.0678 0000980 278.4463  81.6278 15.27576237129643
STARLINK-31276          
1 59075U 24041B   26169.17103929  .00000059  00000+0  11656-4 0  9999
2 59075  42.9997 102.8280 0000922 262.8333  97.2414 15.27577763129693
STARLINK-31259          
1 59076U 24041C   26169.24027722  .00000158  00000+0  15251-4 0  9999
2 59076  42.9992 102.4889 0000930 248.7974 111.2778 15.27576951128601
STARLINK-31281          
1 59077U 24041D   26169.17875300  .00000187  00000+0  16327-4 0  9992
2 59077  43.0016 102.8855 0000507 264.5762  95.5032 15.27575516129692
STARLINK-31274          
1 59078U 24041E   26169.20830008  .00000629  00000+0  32386-4 0  9997
2 59078  43.0029 103.1037 0001148 287.8193  72.2533 15.27577778129646
STARLINK-31257          
1 59079U 24041F   26169.19159715 -.00000515  00000+0 -91930-5 0  9992
2 59079  43.0027 102.9818 0000835 262.2517  97.8240 15.27573961129646
