OBJECT_NAME,OBJECT_ID,EPOCH,MEAN_MOTION,ECCENTRICITY,INCLINATION,RA_OF_ASC_NODE,ARG_OF_PERICENTER,MEAN_ANOMALY,EPHEMERIS_TYPE,CLASSIFICATION_TYPE,NORAD_CAT_ID,ELEMENT_SET_NO,REV_AT_EPOCH,BSTAR,MEAN_MOTION_DOT,MEAN_MOTION_DDOT
STARLINK-31211,2024-038J,2026-06-18T01:45:13.052736,15.27573425,.00010635,43.0016,179.8364,277.9890,82.0841,0,U,59031,999,13000,-.6247438E-5,-.434E-5,0
STARLINK-30862,2024-038K,2026-06-16T17:56:25.591488,15.27578109,.00022771,43.0109,176.7510,269.7142,90.3449,0,U,59032,999,12992,.10859918E-4,.36E-6,0
STARLINK-31210,2024-038L,2026-06-18T00:48:46.044000,15.27578704,.00012772,43.0016,176.9546,274.0978,85.9728,0,U,59033,999,13020,.21525277E-4,.33E-5,0
STARLINK-31231,2024-038M,2026-06-18T00:43:12.909792,15.27577449,.00011089,42.9999,176.9243,273.6420,86.4305,0,U,59034,999,13003,.3474333E-5,-.166E-5,0
STARLINK-31207,2024-038N,2026-06-18T00:37:39.834336,15.27578527,.00010831,43.0002,176.8962,269.2061,90.8666,0,U,59035,999,13020,.18030366E-4,.234E-5,0
STARLINK-31217,2024-038P,2026-06-18T03:27:55.704672,15.27579779,.00009518,43.0033,81.9019,275.0948,84.9795,0,U,59036,999,13130,.21487033E-4,.329E-5,0
STARLINK-31208,2024-038Q,2026-06-18T07:52:47.715456,15.27576290,.0000888,42.9995,179.1392,267.1343,92.9407,0,U,59037,999,13020,.7867105E-5,-.45E-6,0
STARLINK-31235,2024-038R,2026-06-18T02:08:07.115136,15.27578004,.0001491,43.0001,176.5048,268.9295,91.1386,0,U,59038,999,13015,.2394251E-4,.397E-5,0
STARLINK-31220,2024-038S,2026-06-18T02:11:06.890208,15.27580055,.00016123,43.0019,179.9694,272.8905,87.1762,0,U,59039,999,13011,.29395697E-4,.547E-5,0
STARLINK-31225,2024-038T,2026-06-18T01:47:45.508128,15.27584984,.00013034,43.0008,176.3646,263.7344,96.3359,0,U,59040,999,13004,.10235571E-3,.2556E-4,0
STARLINK-31240,2024-038U,2026-06-18T01:09:07.390944,15.27574649,.00012149,42.9995,177.0596,276.1750,83.8963,0,U,59041,999,13014,.247268E-5,-.194E-5,0
STARLINK-31202,2024-038V,2026-06-18T02:30:28.084608,15.28749344,.00025235,43.0006,175.7731,180.3972,179.6879,0,U,59042,999,13022,.15437132E-3,.414E-4,0
STARLINK-31234,2024-038W,2026-06-18T00:59:52.573344,15.27588118,.00008394,43.0046,177.0122,270.2423,89.8332,0,U,59043,999,13003,.11144005E-3,.2806E-4,0
STARLINK-31153,2024-038X,2026-06-18T00:28:24.548448,15.27579544,.00008109,43.0014,176.8461,238.6042,121.4730,0,U,59044,999,13003,.39470689E-4,.824E-5,0
STARLINK-31241,2024-038Y,2026-06-18T07:22:03.990432,15.27559995,.00008777,42.9992,175.5613,273.3954,86.6797,0,U,59045,999,13024,-.69627683E-4,-.2176E-4,0
STARLINK-31205,2024-038Z,2026-06-18T00:54:19.263744,15.27577411,.00014646,43.0042,176.9819,261.9332,98.1354,0,U,59046,999,13014,.1882138E-4,.256E-5,0
METEOR-M2 4,2024-039A,2026-06-18T07:24:49.480992,14.22429678,.00073583,98.7011,128.5928,157.8364,202.3133,0,U,59051,999,11942,.26815349E-4,.16E-6,0
PARS 1,2024-039Q,2026-06-18T06:51:12.991392,15.45742952,.00115318,97.4824,150.2399,108.4357,251.8147,0,U,59065,999,12881,.18536906E-3,.8891E-4,0
SITRO-AIS 25,2024-039R,2026-06-18T07:32:22.765632,14.93517819,.01433179,95.3904,235.8670,324.7723,34.4092,0,U,59066,999,12489,.17830626E-3,.2261E-4,0
SITRO-AIS 26,2024-039S,2026-06-18T05:58:05.160576,14.93313908,.01437242,95.3910,235.7193,325.6167,33.5819,0,U,59067,999,12487,.17158362E-3,.2165E-4,0
SITRO-AIS 27,2024-039T,2026-06-18T06:51:16.284096,14.93735265,.01426769,95.3912,236.0171,324.0991,35.0709,0,U,59068,999,12490,.13921843E-3,.1765E-4,0
HULIANWAN GAOGUI-01 (HG-01),2024-040A,2026-06-18T01:06:18.317376,1.00271503,.00028349,0.0671,331.6116,65.8323,278.9846,0,U,59069,999,733,0,.15E-5,0
SITRO-AIS 28,2024-039U,2026-06-18T06:18:45.558720,14.93768479,.01425164,95.3911,236.0488,324.0059,35.1631,0,U,59071,999,12490,.19436635E-3,.248E-4,0
MARAFON-D GVM,2024-039V,2026-06-18T06:28:56.686656,14.46011441,.00155479,88.9830,283.7178,340.9181,19.1439,0,U,59072,999,12134,.56298107E-4,.216E-5,0
STARLINK-31265,2024-041A,2026-06-18T04:52:33.978720,15.27576237,.00009804,43.0022,103.0678,278.4463,81.6278,0,U,59074,999,12964,.32364292E-4,.629E-5,0
STARLINK-31276,2024-041B,2026-06-18T04:06:17.794656,15.27577763,.00009221,42.9997,102.8280,262.8333,97.2414,0,U,59075,999,12969,.11655602E-4,.59E-6,0
STARLINK-31259,2024-041C,2026-06-18T05:45:59.951808,15.27576951,.00009306,42.9992,102.4889,248.7974,111.2778,0,U,59076,999,12860,.15250529E-4,.158E-5,0
STARLINK-31281,2024-041D,2026-06-18T04:17:24.259200,15.27575516,.00005072,43.0016,102.8855,264.5762,95.5032,0,U,59077,999,12969,.16326534E-4,.187E-5,0
STARLINK-31274,2024-041E,2026-06-18T04:59:57.126912,15.27577778,.00011483,43.0029,103.1037,287.8193,72.2533,0,U,59078,999,12964,.32385582E-4,.629E-5,0
STARLINK-31257,2024-041F,2026-06-18T04:35:53.993760,15.27573961,.00008355,43.0027,102.9818,262.2517,97.8240,0,U,59079,999,12964,-.9193023E-5,-.515E-5,0
